[{"OBJECT_NAME":"STARLINK-5562","OBJECT_ID":"2023-058V","EPOCH":"2026-03-09T22:09:34.119648","MEAN_MOTION":15.01261223,"ECCENTRICITY":0.00016906,"INCLINATION":97.604,"RA_OF_ASC_NODE":70.411,"ARG_OF_PERICENTER":53.5061,"MEAN_ANOMALY":306.6319,"EPHEMERIS_TYPE":0,"CLASSIFICATION_TYPE":"U","NORAD_CAT_ID":56336,"ELEMENT_SET_NO":999,"REV_AT_EPOCH":15816,"BSTAR":-2.509918e-6,"MEAN_MOTION_DOT":-9.1e-7,"MEAN_MOTION_DDOT":0},{"OBJECT_NAME":"COSMOS 397","OBJECT_ID":"1971-015A","EPOCH":"2026-03-09T21:06:55.710144","MEAN_MOTION":12.74935942,"ECCENTRICITY":0.10338804,"INCLINATION":65.7267,"RA_OF_ASC_NODE":325.6378,"ARG_OF_PERICENTER":275.7656,"MEAN_ANOMALY":72.6585,"EPHEMERIS_TYPE":0,"CLASSIFICATION_TYPE":"U","NORAD_CAT_ID":4964,"ELEMENT_SET_NO":999,"REV_AT_EPOCH":65559,"BSTAR":4.9717727e-5,"MEAN_MOTION_DOT":2.9e-7,"MEAN_MOTION_DDOT":0}]
